{"type": "FeatureCollection", "features": [ {"type": "Feature", "properties": {"norad_id": 66560, "name": "STARLINK-35411", "group": "last-30-days", "lat": 41.759518725191775, "lon": 158.02907921568172, "alt_km": 408.948909821439, "timestamp": "2025-12-18T23:35:47.780249+00:00", "meta": {"OBJECT_NAME": "STARLINK-35411", "OBJECT_ID": "2025-268D", "EPOCH": "2025-12-18T13:59:16.855008", "MEAN_MOTION": 15.50619101, "ECCENTRICITY": 0.00012512, "INCLINATION": 43.0007, "RA_OF_ASC_NODE": 87.0147, "ARG_OF_PERICENTER": 266.9937, "MEAN_ANOMALY": 93.078, "EPHEMERIS_TYPE": 0, "CLASSIFICATION_TYPE": "U", "NORAD_CAT_ID": 66560, "ELEMENT_SET_NO": 999, "REV_AT_EPOCH": 553, "BSTAR": 0.0011242099, "MEAN_MOTION_DOT": 0.00066265, "MEAN_MOTION_DDOT": 0}, "tle": {"line1": "1 66560U 25268D   25352.58283397  .00066265  00000+0  11242-2 0  9994", "line2": "2 66560  43.0007  87.0147 0001251 266.9937  93.0780 15.50619101  5536"}}, "geometry": {"type": "Point", "coordinates": [158.02907921568172, 41.759518725191775]}}, {"type": "Feature", "properties": {"norad_id": 66561, "name": "STARLINK-35305", "group": "last-30-days", "lat": 42.39967504606296, "lon": 163.1480597545933, "alt_km": 408.88782861304844, "timestamp": "2025-12-18T23:35:47.780261+00:00", "meta": {"OBJECT_NAME": "STARLINK-35305", "OBJECT_ID": "2025-268E", "EPOCH": "2025-12-18T13:58:17.585472", "MEAN_MOTION": 15.50630043, "ECCENTRICITY": 0.0001391, "INCLINATION": 43.0006, "RA_OF_ASC_NODE": 87.0086, "ARG_OF_PERICENTER": 253.6895, "MEAN_ANOMALY": 106.3812, "EPHEMERIS_TYPE": 0, "CLASSIFICATION_TYPE": "U", "NORAD_CAT_ID": 66561, "ELEMENT_SET_NO": 999, "REV_AT_EPOCH": 553, "BSTAR": 0.0014137753, "MEAN_MOTION_DOT": 0.00083641, "MEAN_MOTION_DDOT": 0}, "tle": {"line1": "1 66561U 25268E   25352.58214798  .00083641  00000+0  14138-2 0  9998", "line2": "2 66561  43.0006  87.0086 0001391 253.6895 106.3812 15.50630043  5531"}}, "geometry": {"type": "Point", "coordinates": [163.1480597545933, 42.39967504606296]}}, {"type": "Feature", "properties": {"norad_id": 66562, "name": "STARLINK-35579", "group": "last-30-days", "lat": 42.10626635522746, "lon": 160.56051207502227, "alt_km": 408.34903814548943, "timestamp": "2025-12-18T23:35:47.780271+00:00", "meta": {"OBJECT_NAME": "STARLINK-35579", "OBJECT_ID": "2025-268F", "EPOCH": "2025-12-18T13:58:48.163296", "MEAN_MOTION": 15.50658266, "ECCENTRICITY": 5.904e-05, "INCLINATION": 43.0006, "RA_OF_ASC_NODE": 87.0113, "ARG_OF_PERICENTER": 271.8395, "MEAN_ANOMALY": 88.2398, "EPHEMERIS_TYPE": 0, "CLASSIFICATION_TYPE": "U", "NORAD_CAT_ID": 66562, "ELEMENT_SET_NO": 999, "REV_AT_EPOCH": 553, "BSTAR": 0.0010362804, "MEAN_MOTION_DOT": 0.000611, "MEAN_MOTION_DDOT": 0}, "tle": {"line1": "1 66562U 25268F   25352.58250189  .00061100  00000+0  10363-2 0  9995", "line2": "2 66562  43.0006  87.0113 0000590 271.8395  88.2398 15.50658266  5534"}}, "geometry": {"type": "Point", "coordinates": [160.56051207502227, 42.10626635522746]}}, {"type": "Feature", "properties": {"norad_id": 66563, "name": "STARLINK-35437", "group": "last-30-days", "lat": 42.628939438440106, "lon": 165.69297616508769, "alt_km": 408.9295559538432, "timestamp": "2025-12-18T23:35:47.780281+00:00", "meta": {"OBJECT_NAME": "STARLINK-35437", "OBJECT_ID": "2025-268G", "EPOCH": "2025-12-18T13:57:47.901024", "MEAN_MOTION": 15.50617028, "ECCENTRICITY": 0.0001369, "INCLINATION": 43.0004, "RA_OF_ASC_NODE": 87.0056, "ARG_OF_PERICENTER": 262.6429, "MEAN_ANOMALY": 97.4275, "EPHEMERIS_TYPE": 0, "CLASSIFICATION_TYPE": "U", "NORAD_CAT_ID": 66563, "ELEMENT_SET_NO": 999, "REV_AT_EPOCH": 553, "BSTAR": 0.0010541152, "MEAN_MOTION_DOT": 0.00062074, "MEAN_MOTION_DDOT": 0}, "tle": {"line1": "1 66563U 25268G   25352.58180441  .00062074  00000+0  10541-2 0  9998", "line2": "2 66563  43.0004  87.0056 0001369 262.6429  97.4275 15.50617028  5537"}}, "geometry": {"type": "Point", "coordinates": [165.69297616508769, 42.628939438440106]}}, {"type": "Feature", "properties": {"norad_id": 66564, "name": "STARLINK-35358", "group": "last-30-days", "lat": 42.80848459050014, "lon": 168.3314607770829, "alt_km": 409.11552297960134, "timestamp": "2025-12-18T23:35:47.780291+00:00", "meta": {"OBJECT_NAME": "STARLINK-35358", "OBJECT_ID": "2025-268H", "EPOCH": "2025-12-18T13:57:18.142272", "MEAN_MOTION": 15.50627894, "ECCENTRICITY": 0.0001797, "INCLINATION": 43.0032, "RA_OF_ASC_NODE": 87.0039, "ARG_OF_PERICENTER": 268.3063, "MEAN_ANOMALY": 91.7591, "EPHEMERIS_TYPE": 0, "CLASSIFICATION_TYPE": "U", "NORAD_CAT_ID": 66564, "ELEMENT_SET_NO": 999, "REV_AT_EPOCH": 553, "BSTAR": 0.0013394126, "MEAN_MOTION_DOT": 0.00079173, "MEAN_MOTION_DDOT": 0}, "tle": {"line1": "1 66564U 25268H   25352.58145998  .00079173  00000+0  13394-2 0  9994", "line2": "2 66564  43.0032  87.0039 0001797 268.3063  91.7591 15.50627894  5532"}}, "geometry": {"type": "Point", "coordinates": [168.3314607770829, 42.80848459050014]}}, {"type": "Feature", "properties": {"norad_id": 66565, "name": "STARLINK-35893", "group": "last-30-days", "lat": 42.920557318466216, "lon": 170.92009538494622, "alt_km": 408.84054646242475, "timestamp": "2025-12-18T23:35:47.780301+00:00", "meta": {"OBJECT_NAME": "STARLINK-35893", "OBJECT_ID": "2025-268J", "EPOCH": "2025-12-18T13:56:48.664320", "MEAN_MOTION": 15.50624497, "ECCENTRICITY": 0.0001387, "INCLINATION": 43.0015, "RA_OF_ASC_NODE": 86.9997, "ARG_OF_PERICENTER": 260.7796, "MEAN_ANOMALY": 99.2908, "EPHEMERIS_TYPE": 0, "CLASSIFICATION_TYPE": "U", "NORAD_CAT_ID": 66565, "ELEMENT_SET_NO": 999, "REV_AT_EPOCH": 553, "BSTAR": 0.0012916172, "MEAN_MOTION_DOT": 0.00076297, "MEAN_MOTION_DDOT": 0}, "tle": {"line1": "1 66565U 25268J   25352.58111880  .00076297  00000+0  12916-2 0  9991", "line2": "2 66565  43.0015  86.9997 0001387 260.7796  99.2908 15.50624497  5530"}}, "geometry": {"type": "Point", "coordinates": [170.92009538494622, 42.920557318466216]}}, {"type": "Feature", "properties": {"norad_id": 66566, "name": "STARLINK-35871", "group": "last-30-days", "lat": 42.9736748478868, "lon": 173.55057300388032, "alt_km": 407.7087352822855, "timestamp": "2025-12-18T23:35:47.780311+00:00", "meta": {"OBJECT_NAME": "STARLINK-35871", "OBJECT_ID": "2025-268K", "EPOCH": "2025-12-18T13:56:19.693536", "MEAN_MOTION": 15.50645839, "ECCENTRICITY": 4.762e-05, "INCLINATION": 42.9993, "RA_OF_ASC_NODE": 86.9961, "ARG_OF_PERICENTER": 20.896, "MEAN_ANOMALY": 339.192, "EPHEMERIS_TYPE": 0, "CLASSIFICATION_TYPE": "U", "NORAD_CAT_ID": 66566, "ELEMENT_SET_NO": 999, "REV_AT_EPOCH": 553, "BSTAR": 0.0012533683, "MEAN_MOTION_DOT": 0.00074062, "MEAN_MOTION_DDOT": 0}, "tle": {"line1": "1 66566U 25268K   25352.58078349  .00074062  00000+0  12534-2 0  9998", "line2": "2 66566  42.9993  86.9961 0000476  20.8960 339.1920 15.50645839  5534"}}, "geometry": {"type": "Point", "coordinates": [173.55057300388032, 42.9736748478868]}}, {"type": "Feature", "properties": {"norad_id": 66567, "name": "STARLINK-35825", "group": "last-30-days", "lat": 42.96896876189209, "lon": 176.1752430709584, "alt_km": 408.56001697306056, "timestamp": "2025-12-18T23:35:47.780321+00:00", "meta": {"OBJECT_NAME": "STARLINK-35825", "OBJECT_ID": "2025-268L", "EPOCH": "2025-12-18T13:55:49.510560", "MEAN_MOTION": 15.50631534, "ECCENTRICITY": 0.00010665, "INCLINATION": 42.9997, "RA_OF_ASC_NODE": 86.9948, "ARG_OF_PERICENTER": 261.3868, "MEAN_ANOMALY": 98.6871, "EPHEMERIS_TYPE": 0, "CLASSIFICATION_TYPE": "U", "NORAD_CAT_ID": 66567, "ELEMENT_SET_NO": 999, "REV_AT_EPOCH": 553, "BSTAR": 0.0015117142, "MEAN_MOTION_DOT": 0.00089531, "MEAN_MOTION_DDOT": 0}, "tle": {"line1": "1 66567U 25268L   25352.58043415  .00089531  00000+0  15117-2 0  9992", "line2": "2 66567  42.9997  86.9948 0001066 261.3868  98.6871 15.50631534  5538"}}, "geometry": {"type": "Point", "coordinates": [176.1752430709584, 42.96896876189209]}}, {"type": "Feature", "properties": {"norad_id": 66568, "name": "STARLINK-35803", "group": "last-30-days", "lat": 42.91398933457966, "lon": 178.55751246369317, "alt_km": 409.0027197490299, "timestamp": "2025-12-18T23:35:47.780333+00:00", "meta": {"OBJECT_NAME": "STARLINK-35803", "OBJECT_ID": "2025-268M", "EPOCH": "2025-12-18T13:55:21.356256", "MEAN_MOTION": 15.50582423, "ECCENTRICITY": 0.00015584, "INCLINATION": 43.0015, "RA_OF_ASC_NODE": 86.9919, "ARG_OF_PERICENTER": 256.0458, "MEAN_ANOMALY": 104.0229, "EPHEMERIS_TYPE": 0, "CLASSIFICATION_TYPE": "U", "NORAD_CAT_ID": 66568, "ELEMENT_SET_NO": 999, "REV_AT_EPOCH": 553, "BSTAR": 0.0016338255, "MEAN_MOTION_DOT": 0.00096711, "MEAN_MOTION_DDOT": 0}, "tle": {"line1": "1 66568U 25268M   25352.58010829  .00096711  00000+0  16338-2 0  9990", "line2": "2 66568  43.0015  86.9919 0001558 256.0458 104.0229 15.50582423  5533"}}, "geometry": {"type": "Point", "coordinates": [178.55751246369317, 42.91398933457966]}}, {"type": "Feature", "properties": {"norad_id": 66569, "name": "STARLINK-35835", "group": "last-30-days", "lat": 42.7861616764613, "lon": -178.65275898479928, "alt_km": 409.7315059435414, "timestamp": "2025-12-18T23:35:47.780350+00:00", "meta": {"OBJECT_NAME": "STARLINK-35835", "OBJECT_ID": "2025-268N", "EPOCH": "2025-12-18T13:54:49.790880", "MEAN_MOTION": 15.50610591, "ECCENTRICITY": 0.00025838, "INCLINATION": 43.0035, "RA_OF_ASC_NODE": 86.9888, "ARG_OF_PERICENTER": 263.7698, "MEAN_ANOMALY": 96.2868, "EPHEMERIS_TYPE": 0, "CLASSIFICATION_TYPE": "U", "NORAD_CAT_ID": 66569, "ELEMENT_SET_NO": 999, "REV_AT_EPOCH": 553, "BSTAR": 0.0010402958, "MEAN_MOTION_DOT": 0.00061239, "MEAN_MOTION_DDOT": 0}, "tle": {"line1": "1 66569U 25268N   25352.57974295  .00061239  00000+0  10403-2 0  9990", "line2": "2 66569  43.0035  86.9888 0002583 263.7698  96.2868 15.50610591  5530"}}, "geometry": {"type": "Point", "coordinates": [-178.65275898479928, 42.7861616764613]}}]}